NORAD_CAT_ID,OBJECT_NAME,OBJECT_TYPE,EPOCH,MEAN_MOTION,ECCENTRICITY,INCLINATION,RA_OF_ASC_NODE,ARG_OF_PERICENTER,MEAN_ANOMALY,BSTAR,MEAN_MOTION_DOT,MEAN_MOTION_DDOT,TLE_LINE0,TLE_LINE1,TLE_LINE2,SEMIMAJOR_AXIS,PERIOD,APOGEE,PERIGEE,DECAYED
55928.0,STARLINK-5930,PAYLOAD,2024-05-04 05:33:50,14.98323455,0.000295,70.0018,204.8514,267.9707,92.1114,2.8287e-05,2.45e-06,0.0,0 STARLINK-5930,1 55928U 23037Q   24125.23183472  .00000245  00000-0  28287-4 0  9990,2 55928  70.0018 204.8514 0002950 267.9707  92.1114 14.98323455 62803,6950.213,96.107,574.128,570.028,0.0
55928.0,STARLINK-5930,PAYLOAD,2024-05-05 12:00:23,14.98333949,0.0002933,70.0002,201.6542,269.1568,90.9255,5.7235e-05,5.9e-06,0.0,0 STARLINK-5930,1 55928U 23037Q   24126.50027342  .00000590  00000-0  57235-4 0  9992,2 55928  70.0002 201.6542 0002933 269.1568  90.9255 14.98333949 62993,6950.181,96.107,574.084,570.007,0.0
55928.0,STARLINK-5930,PAYLOAD,2024-05-05 13:36:31,14.98335254,0.0002927,70.0002,201.4859,269.2224,90.86,7.0322e-05,7.46e-06,0.0,0 STARLINK-5930,1 55928U 23037Q   24126.56703214  .00000746  00000-0  70322-4 0  9992,2 55928  70.0002 201.4859 0002927 269.2224  90.8600 14.98335254 62663,6950.177,96.107,574.076,570.007,0.0
55928.0,STARLINK-5930,PAYLOAD,2024-05-05 21:37:11,14.98336781,0.0002884,70.0004,200.6449,269.8023,90.2805,9.3307e-05,1.021e-05,0.0,0 STARLINK-5930,1 55928U 23037Q   24126.90083018  .00001021  00000-0  93307-4 0  9998,2 55928  70.0004 200.6449 0002884 269.8023  90.2805 14.98336781 62719,6950.172,96.107,574.041,570.032,0.0
55928.0,STARLINK-5930,PAYLOAD,2024-05-06 12:02:22,14.98388864,0.0003315,70.0,199.1295,277.6649,82.4133,-0.00065964,-7.967e-05,0.0,0 STARLINK-5930,1 55928U 23037Q   24127.50164549 -.00007967  00000-0 -65964-3 0  9998,2 55928  70.0000 199.1295 0003315 277.6649  82.4133 14.98388864 63141,6950.011,96.103,574.18,569.572,0.0
55928.0,STARLINK-5930,PAYLOAD,2024-05-06 13:38:31,14.98344148,0.0002997,70.0,198.9613,273.3427,86.739,0.00041839,4.904e-05,0.0,0 STARLINK-5930,1 55928U 23037Q   24127.56842308  .00004904  00000-0  41839-3 0  9991,2 55928  70.0000 198.9613 0002997 273.3427  86.7390 14.98344148 62816,6950.149,96.106,574.097,569.931,0.0
55928.0,STARLINK-5930,PAYLOAD,2024-05-06 15:14:39,14.98361698,0.0002879,70.0016,198.7928,278.6125,81.4708,-7.2673e-05,-9.61e-06,0.0,0 STARLINK-5930,1 55928U 23037Q   24127.63517563 -.00000961  00000-0 -72673-4 0  9993,2 55928  70.0016 198.7928 0002879 278.6125  81.4708 14.98361698 63165,6950.095,96.105,573.961,569.959,0.0
55928.0,STARLINK-5930,PAYLOAD,2024-05-06 21:39:12,14.98339265,0.0002337,70.0034,198.1211,267.8215,92.2676,0.0001835,2.098e-05,0.0,0 STARLINK-5930,1 55928U 23037Q   24127.90222827  .00002098  00000-0  18350-3 0  9991,2 55928  70.0034 198.1211 0002337 267.8215  92.2676 14.98339265 62868,6950.164,96.106,573.653,570.405,0.0
55928.0,STARLINK-5930,PAYLOAD,2024-05-07 12:04:25,14.98334648,0.0002576,70.0012,196.6095,241.4256,118.6644,2.962e-05,2.61e-06,0.0,0 STARLINK-5930,1 55928U 23037Q   24128.50306932  .00000261  00000-0  29620-4 0  9991,2 55928  70.0012 196.6095 0002576 241.4256 118.6644 14.98334648 63291,6950.179,96.107,573.834,570.253,0.0
55928.0,STARLINK-5930,PAYLOAD,2024-05-07 13:40:33,14.98331214,0.0002759,70.0005,196.4368,270.8828,89.2015,2.6367e-05,2.22e-06,0.0,0 STARLINK-5930,1 55928U 23037Q   24128.56983199  .00000222  00000-0  26367-4 0  9995,2 55928  70.0005 196.4368 0002759 270.8828  89.2015 14.98331214 62962,6950.189,96.107,573.972,570.137,0.0
55928.0,STARLINK-5930,PAYLOAD,2024-05-08 12:06:26,14.98333492,0.0002988,70.0,194.0805,268.6637,91.418,-6.0489e-05,-8.15e-06,0.0,0 STARLINK-5930,1 55928U 23037Q   24129.50446961 -.00000815  00000-0 -60489-4 0  9994,2 55928  70.0000 194.0805 0002988 268.6637  91.4180 14.98333492 63446,6950.182,96.107,574.124,569.97,0.0
55928.0,STARLINK-5930,PAYLOAD,2024-05-08 13:42:34,14.98332634,0.0002781,70.0005,193.9132,267.4512,92.6329,-7.2201e-05,-9.54e-06,0.0,0 STARLINK-5930,1 55928U 23037Q   24129.57123040 -.00000954  00000-0 -72201-4 0  9990,2 55928  70.0005 193.9132 0002781 267.4512  92.6329 14.98332634 63111,6950.185,96.107,573.983,570.117,0.0
55928.0,STARLINK-5930,PAYLOAD,2024-05-08 21:43:14,14.98332834,0.000298,69.9998,193.0705,269.1209,90.9608,1.5747e-05,9.5e-07,0.0,0 STARLINK-5930,1 55928U 23037Q   24129.90502677  .00000095  00000-0  15747-4 0  9990,2 55928  69.9998 193.0705 0002980 269.1209  90.9608 14.98332834 63167,6950.184,96.107,574.12,569.978,0.0
55928.0,STARLINK-5930,PAYLOAD,2024-05-09 12:08:26,14.9833603,0.0003099,69.9998,191.5554,269.2307,90.8497,0.00014581,1.647e-05,0.0,0 STARLINK-5930,1 55928U 23037Q   24130.50586226  .00001647  00000-0  14581-3 0  9998,2 55928  69.9998 191.5554 0003099 269.2307  90.8497 14.98336030 63598,6950.174,96.107,574.193,569.885,0.0
55928.0,STARLINK-5930,PAYLOAD,2024-05-09 13:44:34,14.98336866,0.0003093,69.9998,191.3872,269.3424,90.7381,0.00015466,1.753e-05,0.0,0 STARLINK-5930,1 55928U 23037Q   24130.57262149  .00001753  00000-0  15466-3 0  9991,2 55928  69.9998 191.3872 0003093 269.3424  90.7381 14.98336866 63266,6950.172,96.107,574.186,569.887,0.0
55928.0,STARLINK-5930,PAYLOAD,2024-05-10 12:10:27,14.98338298,0.0003092,69.9999,189.0311,269.692,90.3885,0.00017892,2.043e-05,0.0,0 STARLINK-5930,1 55928U 23037Q   24131.50726063  .00002043  00000-0  17892-3 0  9993,2 55928  69.9999 189.0311 0003092 269.6920  90.3885 14.98338298 63741,6950.167,96.106,574.181,569.883,0.0
55928.0,STARLINK-5930,PAYLOAD,2024-05-10 13:46:35,14.98339311,0.0003089,69.9999,188.8628,269.6851,90.3955,0.00018934,2.167e-05,0.0,0 STARLINK-5930,1 55928U 23037Q   24131.57401973  .00002167  00000-0  18934-3 0  9995,2 55928  69.9999 188.8628 0003089 269.6851  90.3955 14.98339311 63417,6950.164,96.106,574.176,569.882,0.0
55928.0,STARLINK-5930,PAYLOAD,2024-05-11 12:12:26,14.98382844,0.0002705,70.0013,186.5083,253.9247,106.1614,0.0011109,0.00013205,0.0,0 STARLINK-5930,1 55928U 23037Q   24132.50863601  .00013205  00000-0  11109-2 0  9990,2 55928  70.0013 186.5083 0002705 253.9247 106.1614 14.98382844 63895,6950.029,96.104,573.774,570.014,0.0
55928.0,STARLINK-5930,PAYLOAD,2024-05-11 20:13:06,14.98356329,0.000258,70.0012,185.6651,283.3989,76.6882,0.00022046,2.54e-05,0.0,0 STARLINK-5930,1 55928U 23037Q   24132.84244072  .00002540  00000-0  22046-3 0  9995,2 55928  70.0012 185.6651 0002580 283.3989  76.6882 14.98356329 63949,6950.111,96.105,573.77,570.183,0.0
55928.0,STARLINK-5930,PAYLOAD,2024-05-12 05:49:56,14.98271999,0.0004414,70.0013,184.6548,296.4632,63.6074,-0.0027512,-0.00032722,0.0,0 STARLINK-5930,1 55928U 23037Q   24133.24302035 -.00032722  00000-0 -27512-2 0  9993,2 55928  70.0013 184.6548 0004414 296.4632  63.6074 14.98271999 64008,6950.372,96.111,575.305,569.169,0.0
55928.0,STARLINK-5930,PAYLOAD,2024-05-12 13:50:38,14.98241345,0.0002974,70.0012,183.8125,276.8986,83.1834,-0.0033061,-0.00039231,0.0,0 STARLINK-5930,1 55928U 23037Q   24133.57683269 -.00039231  00000-0 -33061-2 0  9998,2 55928  70.0012 183.8125 0002974 276.8986  83.1834 14.98241345 63712,6950.467,96.113,574.399,570.265,0.0
55928.0,STARLINK-5930,PAYLOAD,2024-05-12 20:15:11,14.98263849,0.0002614,70.0016,183.1417,270.744,89.3419,3.6676e-05,3.44e-06,0.0,0 STARLINK-5930,1 55928U 23037Q   24133.84388619  .00000344  00000-0  36676-4 0  9997,2 55928  70.0016 183.1417 0002614 270.7440  89.3419 14.98263849 64094,6950.397,96.111,574.079,570.446,0.0
55928.0,STARLINK-5930,PAYLOAD,2024-05-13 02:39:44,14.98267336,0.000501,70.0012,182.4655,273.3454,86.7132,0.0014921,0.00017729,0.0,0 STARLINK-5930,1 55928U 23037Q   24134.11093119  .00017729  00000-0  14921-2 0  9998,2 55928  70.0012 182.4655 0005010 273.3454  86.7132 14.98267336 64136,6950.387,96.111,575.734,568.77,0.0
55928.0,STARLINK-5930,PAYLOAD,2024-05-13 12:16:33,14.98329793,0.0003399,70.0002,181.4564,284.0629,76.0152,0.0016555,0.00019716,0.0,0 STARLINK-5930,1 55928U 23037Q   24134.51149345  .00019716  00000-0  16555-2 0  9998,2 55928  70.0002 181.4564 0003399 284.0629  76.0152 14.98329793 64190,6950.194,96.107,574.421,569.696,0.0
55928.0,STARLINK-5930,PAYLOAD,2024-05-13 20:17:13,14.983352,0.0003391,70.0003,180.6143,284.1836,75.8946,0.00081269,9.619e-05,0.0,0 STARLINK-5930,1 55928U 23037Q   24134.84529235  .00009619  00000-0  81269-3 0  9990,2 55928  70.0003 180.6143 0003391 284.1836  75.8946 14.98335200 63904,6950.177,96.107,574.399,569.685,0.0
55928.0,STARLINK-5930,PAYLOAD,2024-05-14 04:17:53,14.9833974,0.0003378,70.0003,179.7731,283.9815,76.0968,0.00066966,7.908e-05,0.0,0 STARLINK-5930,1 55928U 23037Q   24135.17909060  .00007908  00000-0  66966-3 0  9991,2 55928  70.0003 179.7731 0003378 283.9815  76.0968 14.98339740 64298,6950.163,96.106,574.376,569.68,0.0
55928.0,STARLINK-5930,PAYLOAD,2024-05-14 12:18:33,14.9834439,0.0003383,70.0003,178.9314,283.3219,76.7563,0.0007618,9.012e-05,0.0,0 STARLINK-5930,1 55928U 23037Q   24135.51288838  .00009012  00000-0  76180-3 0  9999,2 55928  70.0003 178.9314 0003383 283.3219  76.7563 14.98344390 64008,6950.148,96.106,574.365,569.662,0.0
55928.0,STARLINK-5930,PAYLOAD,2024-05-15 05:56:01,14.9836193,0.0003453,70.0003,177.0798,283.2993,76.7781,0.00084737,0.00010041,0.0,0 STARLINK-5930,1 55928U 23037Q   24136.24723520  .00010041  00000-0  84737-3 0  9993,2 55928  70.0003 177.0798 0003453 283.2993  76.7781 14.98361930 64450,6950.094,96.105,574.359,569.559,0.0
55928.0,STARLINK-5930,PAYLOAD,2024-05-15 12:20:32,14.98370662,0.0003459,70.0006,176.4063,283.2312,76.8461,0.0010377,0.00012324,0.0,0 STARLINK-5930,1 55928U 23037Q   24136.51426850  .00012324  00000-0  10377-2 0  9993,2 55928  70.0006 176.4063 0003459 283.2312  76.8461 14.98370662 64157,6950.067,96.104,574.336,569.528,0.0
55928.0,STARLINK-5930,PAYLOAD,2024-05-15 20:21:12,14.98358836,0.0003771,70.001,175.5635,277.686,82.3871,0.00033825,3.948e-05,0.0,0 STARLINK-5930,1 55928U 23037Q   24136.84806328  .00003948  00000-0  33825-3 0  9997,2 55928  70.0010 175.5635 0003771 277.6860  82.3871 14.98358836 64548,6950.104,96.105,574.59,569.348,0.0
